ONEWEB-0055             
1 45443U 20020V   23157.72411883 -.00000497  00000+0 -14385-2 0  9990
2 45443  87.8917 240.8416 0001986  98.3266 261.8087 13.11419654157599
ONEWEB-0093             
1 45444U 20020W   23157.77392244  .00000227  00000+0  60517-3 0  9993
2 45444  87.8907 240.8257 0002039  89.8669 270.2692 13.11418033157668
ONEWEB-0029             
1 45445U 20020X   23157.79618094 -.00000473  00000+0 -13715-2 0  9992
2 45445  87.8914 240.8227 0002228  95.3245 264.8137 13.11415203157643
ONEWEB-0068             
1 45446U 20020Y   23157.76650764  .00000462  00000+0  12691-2 0  9998
2 45446  87.8907 240.8241 0002134  88.4889 271.6483 13.11414876157583
ONEWEB-0046             
1 45447U 20020Z   23157.76332825  .00000570  00000+0  15712-2 0  9991
2 45447  87.8908 240.8366 0002208 101.5905 258.5471 13.11415092157594
ONEWEB-0063             
1 45448U 20020AA  23157.79299957 -.00000434  00000+0 -12611-2 0  9999
2 45448  87.8914 240.8201 0002226 105.1606 254.9768 13.11416139157680
ONEWEB-0019             
1 45449U 20020AB  23157.76758634  .00000474  00000+0  13003-2 0  9997
2 45449  87.8911 240.8289 0001751 101.7701 258.3623 13.11417905157527
ONEWEB-0094             
1 45450U 20020AC  23157.68646445  .00000157  00000+0  37121-3 0  9992
2 45450  87.9118 225.7647 0002090  96.1892 263.9478 13.17650233160594
ONEWEB-0087             
1 45451U 20020AD  23157.72517217 -.00000492  00000+0 -14245-2 0  9997
2 45451  87.8987 240.7835 0002387  93.9959 266.1442 13.11416742157560
ONEWEB-0082             
1 45452U 20020AE  23157.72729265 -.00000430  00000+0 -12482-2 0  9999
2 45452  87.8918 240.8085 0001999  95.0871 265.0485 13.11419338157656
ONEWEB-0050             
1 45453U 20020AF  23157.86479941  .00005978  00000+0  46739-3 0  9991
2 45453  87.5342 128.8493 0025851   3.4025 356.7379 15.00644045175352
ONEWEB-0034             
1 45454U 20020AG  23157.74636667  .00000326  00000+0  88486-3 0  9996
2 45454  87.8917 240.8234 0002147  97.9096 262.2275 13.11419770157576
ONEWEB-0060             
1 45455U 20020AH  23157.75381545  .00000541  00000+0  14903-2 0  9991
2 45455  87.8912 240.8276 0002082  98.1010 262.0354 13.11419282157535
ONEWEB-0086             
1 45456U 20020AJ  23157.77181231  .00000278  00000+0  74804-3 0  9998
2 45456  87.8914 240.8213 0002150  93.8680 266.2693 13.11414201157594
ONEWEB-0088             
1 45457U 20020AK  23157.74848514  .00000421  00000+0  11523-2 0  9998
2 45457  87.8905 240.8140 0002230  98.9169 261.2211 13.11419877157529
ONEWEB-0102             
1 47258U 20100A   23157.70441466 -.00000292  00000+0 -84611-3 0  9996
2 47258  87.9006 210.5436 0001760  92.0161 268.1169 13.12443935119595
ONEWEB-0109             
1 47259U 20100B   23157.63875646 -.00000395  00000+0 -11325-2 0  9995
2 47259  87.9024 210.5608 0002110  94.7479 265.3890 13.12444216119412
ONEWEB-0110             
1 47260U 20100C   23157.66205768  .00000213  00000+0  55716-3 0  9992
2 47260  87.9021 210.5250 0001960  90.1436 269.9917 13.12444358119584
ONEWEB-0111             
1 47261U 20100D   23157.69382062  .00000049  00000+0  99611-4 0  9999
2 47261  87.9020 210.5020 0001915  94.1777 265.9570 13.12439387119421
ONEWEB-0114             
1 47262U 20100E   23157.64935212 -.00000188  00000+0 -55659-3 0  9995
2 47262  87.9023 210.5372 0001565 105.9742 254.1559 13.12443162119376
ONEWEB-0117             
1 47263U 20100F   23157.71711724 -.00000369  00000+0 -10598-2 0  9997
2 47263  87.9024 210.5543 0002111  95.9897 264.1472 13.12444319119397
ONEWEB-0118             
1 47264U 20100G   23157.67265183  .00000445  00000+0  12013-2 0  9993
2 47264  87.9006 210.5128 0002023 115.7324 244.4013 13.12441453119584
ONEWEB-0119             
1 47265U 20100H   23157.70019073 -.00000157  00000+0 -47196-3 0  9996
2 47265  87.9007 210.5444 0002059  91.4787 268.6578 13.12440199119567
ONEWEB-0120             
1 47266U 20100J   23157.65465050 -.00000018  00000+0 -84433-4 0  9993
2 47266  87.9009 210.5409 0001976 101.8691 258.2659 13.12444078119585
ONEWEB-0121             
1 47267U 20100K   23157.71287472 -.00000408  00000+0 -11688-2 0  9994
2 47267  87.9017 210.5250 0002195  92.4621 267.6759 13.12443700119509
ONEWEB-0122             
1 47268U 20100L   23157.70653876 -.00000255  00000+0 -74363-3 0  9999
2 47268  87.9024 210.5257 0001876  93.3837 266.7506 13.12440055119419
ONEWEB-0123             
1 47269U 20100M   23157.70229312 -.00000180  00000+0 -53566-3 0  9993
2 47269  87.9007 210.5426 0002049  96.4840 263.6521 13.12441726119554
ONEWEB-0124             
1 47270U 20100N   23157.68959191  .00000159  00000+0  40698-3 0  9993
2 47270  87.9019 210.5333 0002294  86.3779 273.7612 13.12442453119435
ONEWEB-0125             
1 47271U 20100P   23157.66624209 -.00001098  00000+0 -30884-2 0  9991
2 47271  87.9024 210.5569 0002508 100.1085 260.0327 13.12438752119491
ONEWEB-0126             
1 47272U 20100Q   23157.69276081  .00000109  00000+0  26647-3 0  9999
2 47272  87.9021 210.5466 0001899  96.2504 263.8840 13.12442104119563
ONEWEB-0127             
1 47273U 20100R   23157.65570851  .00000005  00000+0 -22131-4 0  9999
2 47273  87.9008 210.5404 0002007  97.0985 263.0372 13.12442337119587
ONEWEB-0128             
1 47274U 20100S   23157.67689283  .00000488  00000+0  13212-2 0  9994
2 47274  87.9013 210.5152 0001952  85.1033 275.0318 13.12443658119607
ONEWEB-0129             
1 47275U 20100T   23157.65783283  .00000102  00000+0  24881-3 0  9996
2 47275  87.9020 210.5655 0001128 149.5768 210.5426 13.12443627119531
ONEWEB-0130             
1 47276U 20100U   23157.68325820  .00000612  00000+0  16661-2 0  9991
2 47276  87.9021 210.5545 0002097  92.7790 267.3579 13.12441095119504
ONEWEB-0131             
1 47277U 20100V   23157.68113105  .00000398  00000+0  10712-2 0  9995
2 47277  87.9020 210.4991 0002164  89.0984 271.0392 13.12439240119545
ONEWEB-0132             
1 47278U 20100W   23157.71075770 -.00000341  00000+0 -98308-3 0  9993
2 47278  87.9021 210.4948 0001892  98.7899 261.3444 13.12444856119446
ONEWEB-0133             
1 47279U 20100X   23157.65147517 -.00000111  00000+0 -34264-3 0  9992
2 47279  87.9015 210.5421 0002140  93.4864 266.6509 13.12445670119599
ONEWEB-0134             
1 47280U 20100Y   23157.69594196  .00002451  00000+0  67766-2 0  9996
2 47280  87.9018 210.5194 0002550  74.8063 285.3347 13.12429459119573
ONEWEB-0135             
1 47281U 20100Z   23157.66417543  .00000327  00000+0  87422-3 0  9996
2 47281  87.9007 210.5348 0001952  93.8901 266.2451 13.12444317119596
ONEWEB-0136             
1 47282U 20100AA  23157.68536572  .00000319  00000+0  85233-3 0  9992
2 47282  87.9019 210.5612 0001558  83.1789 276.9516 13.12443046119523
ONEWEB-0137             
1 47283U 20100AB  23157.64511798 -.00000328  00000+0 -94812-3 0  9997
2 47283  87.9023 210.5351 0002034 100.5828 259.5530 13.12446067119425
ONEWEB-0138             
1 47284U 20100AC  23157.69805067 -.00000117  00000+0 -36192-3 0  9991
2 47284  87.9021 210.5356 0001964  95.0686 265.0666 13.12440008119511
ONEWEB-0139             
1 47285U 20100AD  23157.67053288  .00000429  00000+0  11579-2 0  9995
2 47285  87.9005 210.5768 0001974  90.3596 269.7759 13.12442015119581
ONEWEB-0140             
1 47286U 20100AE  23157.69172366  .00000177  00000+0  45641-3 0  9995
2 47286  87.9022 210.5112 0001948  92.2310 267.9041 13.12440902119554
ONEWEB-0141             
1 47287U 20100AF  23157.71394861 -.00000412  00000+0 -11813-2 0  9992
2 47287  87.9021 210.5050 0002290 104.9009 255.2373 13.12440253119548
ONEWEB-0142             
1 47288U 20100AG  23157.70541066  .00005548  00000+0  15367-1 0  9993
2 47288  87.9021 210.5581 0001291 106.2439 253.8832 13.12484571119534
ONEWEB-0143             
1 47289U 20100AH  23157.65996196 -.00001404  00000+0 -39398-2 0  9996
2 47289  87.9036 210.5273 0001958 108.6090 251.5251 13.12427379119508
ONEWEB-0144             
1 47290U 20100AJ  23157.63241531 -.00000358  00000+0 -10305-2 0  9996
2 47290  87.9023 210.5489 0001649  97.5505 262.5811 13.12442840119424
ONEWEB-0145             
1 47291U 20100AK  23157.67899273  .00000426  00000+0  11485-2 0  9997
2 47291  87.9014 210.5345 0002019  97.2991 262.8367 13.12444300119628
ONEWEB-0146             
1 47292U 20100AL  23157.67476997  .00000454  00000+0  12256-2 0  9990
2 47292  87.9025 210.5561 0002655  92.7649 267.3783 13.12441653119537
ONEWEB-0147             
1 47293U 20100AM  23157.71923360 -.00000323  00000+0 -93203-3 0  9996
2 47293  87.9022 210.5069 0001731  86.9221 273.2105 13.12443145119434
ONEWEB-0115             
1 48042U 21025A   23157.61967711 -.00000211  00000+0 -61218-3 0  9990
2 48042  87.9055 180.2646 0002255  87.2639 272.8748 13.13470154108332
ONEWEB-0152             
1 48043U 21025B   23157.55618417 -.00000283  00000+0 -80998-3 0  9995
2 48043  87.9052 180.2634 0002039  87.7315 272.4047 13.13471144108285
ONEWEB-0153             
1 48044U 21025C   23157.60909638  .00000093  00000+0  22080-3 0  9995
2 48044  87.9055 180.2448 0001953  91.2364 268.8989 13.13469476108289
ONEWEB-0154             
1 48045U 21025D   23157.60696578  .00000096  00000+0  22756-3 0  9995
2 48045  87.9051 180.2548 0002019  89.9800 270.1561 13.13471875108244
ONEWEB-0116             
1 48046U 21025E   23157.57312730  .00000086  00000+0  20166-3 0  9999
2 48046  87.9044 180.2379 0002371  88.1841 271.9560 13.13468344108386
ONEWEB-0150             
1 48047U 21025F   23157.62179845 -.00000221  00000+0 -64026-3 0  9990
2 48047  87.9049 180.2494 0001944  96.2951 263.8399 13.13467714108286
ONEWEB-0107             
1 48048U 21025G   23157.54773064 -.00000269  00000+0 -77171-3 0  9992
2 48048  87.9048 180.2626 0001803 101.8542 258.2790 13.13470136108258
ONEWEB-0101             
1 48049U 21025H   23157.58793387  .00000363  00000+0  95818-3 0  9998
2 48049  87.9050 180.2637 0001823  90.0052 270.1286 13.13470276108237
